{
  "type": "FeatureCollection",
  "features": [
    {
      "type": "Feature",
      "properties": {
        "norad_id": 43823,
        "name": "GEO-KOMPSAT-2A",
        "group": "weather",
        "lat": -0.00011999304852393532,
        "lon": 77.20762629206477,
        "alt_km": 35784.606505419346,
        "timestamp": "2025-12-20T14:38:01.600796+00:00",
        "meta_object_name": "GEO-KOMPSAT-2A",
        "meta_object_id": "2018-100A",
        "meta_epoch": "2025-12-20T00:00:38.825568",
        "meta_mean_motion": 1.00271526,
        "meta_eccentricity": 4.326e-05,
        "meta_inclination": 0.0525,
        "meta_ra_of_asc_node": 147.2105,
        "meta_arg_of_pericenter": 316.6057,
        "meta_mean_anomaly": 113.4584,
        "meta_ephemeris_type": 0,
        "meta_classification_type": "U",
        "meta_norad_cat_id": 43823,
        "meta_element_set_no": 999,
        "meta_rev_at_epoch": 2583,
        "meta_bstar": 0,
        "meta_mean_motion_dot": -3.19e-06,
        "meta_mean_motion_ddot": 0,
        "tle_line1": "1 43823U 18100A   25354.00044937 -.00000319  00000+0  00000+0 0  9998",
        "tle_line2": "2 43823   0.0525 147.2105 0000432 316.6057 113.4584  1.00271526 25839"
      },
      "geometry": {
        "type": "Point",
        "coordinates": [
          77.20762629206477,
          -0.00011999304852393532
        ]
      }
    },
    {
      "type": "Feature",
      "properties": {
        "norad_id": 44387,
        "name": "METEOR-M2 2",
        "group": "weather",
        "lat": 24.942531054704695,
        "lon": -29.742832761123157,
        "alt_km": 810.3904849854634,
        "timestamp": "2025-12-20T14:38:01.600807+00:00",
        "meta_object_name": "METEOR-M2 2",
        "meta_object_id": "2019-038A",
        "meta_epoch": "2025-12-20T06:05:07.915776",
        "meta_mean_motion": 14.24294862,
        "meta_eccentricity": 0.00015977,
        "meta_inclination": 98.897,
        "meta_ra_of_asc_node": 334.0745,
        "meta_arg_of_pericenter": 132.1095,
        "meta_mean_anomaly": 228.0219,
        "meta_ephemeris_type": 0,
        "meta_classification_type": "U",
        "meta_norad_cat_id": 44387,
        "meta_element_set_no": 999,
        "meta_rev_at_epoch": 33582,
        "meta_bstar": 8.2210747e-05,
        "meta_mean_motion_dot": 1.44e-06,
        "meta_mean_motion_ddot": 0,
        "tle_line1": "1 44387U 19038A   25354.25356384  .00000144  00000+0  82211-4 0  9998",
        "tle_line2": "2 44387  98.8970 334.0745 0001597 132.1095 228.0219 14.24294862335825"
      },
      "geometry": {
        "type": "Point",
        "coordinates": [
          -29.742832761123157,
          24.942531054704695
        ]
      }
    },
    {
      "type": "Feature",
      "properties": {
        "norad_id": 47719,
        "name": "ARKTIKA-M 1",
        "group": "weather",
        "lat": 43.906677596907876,
        "lon": 112.0758873385179,
        "alt_km": 23133.95293849469,
        "timestamp": "2025-12-20T14:38:01.600830+00:00",
        "meta_object_name": "ARKTIKA-M 1",
        "meta_object_id": "2021-016A",
        "meta_epoch": "2025-12-20T01:15:32.338368",
        "meta_mean_motion": 2.00630446,
        "meta_eccentricity": 0.72079263,
        "meta_inclination": 63.1764,
        "meta_ra_of_asc_node": 82.997,
        "meta_arg_of_pericenter": 269.153,
        "meta_mean_anomaly": 15.5565,
        "meta_ephemeris_type": 0,
        "meta_classification_type": "U",
        "meta_norad_cat_id": 47719,
        "meta_element_set_no": 999,
        "meta_rev_at_epoch": 3519,
        "meta_bstar": 0,
        "meta_mean_motion_dot": -1.14e-06,
        "meta_mean_motion_ddot": 0,
        "tle_line1": "1 47719U 21016A   25354.05245762 -.00000114  00000+0  00000+0 0  9993",
        "tle_line2": "2 47719  63.1764  82.9970 7207926 269.1530  15.5565  2.00630446 35191"
      },
      "geometry": {
        "type": "Point",
        "coordinates": [
          112.0758873385179,
          43.906677596907876
        ]
      }
    },
    {
      "type": "Feature",
      "properties": {
        "norad_id": 49008,
        "name": "FENGYUN 3E",
        "group": "weather",
        "lat": -39.25166934416768,
        "lon": 167.81102347346038,
        "alt_km": 831.6597075250966,
        "timestamp": "2025-12-20T14:38:01.600843+00:00",
        "meta_object_name": "FENGYUN 3E",
        "meta_object_id": "2021-062A",
        "meta_epoch": "2025-12-20T06:50:13.973280",
        "meta_mean_motion": 14.19881268,
        "meta_eccentricity": 7.318e-05,
        "meta_inclination": 98.7468,
        "meta_ra_of_asc_node": 354.7167,
        "meta_arg_of_pericenter": 211.8157,
        "meta_mean_anomaly": 148.2975,
        "meta_ephemeris_type": 0,
        "meta_classification_type": "U",
        "meta_norad_cat_id": 49008,
        "meta_element_set_no": 999,
        "meta_rev_at_epoch": 23119,
        "meta_bstar": 0.00012586373,
        "meta_mean_motion_dot": 2.23e-06,
        "meta_mean_motion_ddot": 0,
        "tle_line1": "1 49008U 21062A   25354.28488395  .00000223  00000+0  12586-3 0  9999",
        "tle_line2": "2 49008  98.7468 354.7167 0000731 211.8157 148.2975 14.19881268231194"
      },
      "geometry": {
        "type": "Point",
        "coordinates": [
          167.81102347346038,
          -39.25166934416768
        ]
      }
    },
    {
      "type": "Feature",
      "properties": {
        "norad_id": 51850,
        "name": "GOES 18",
        "group": "weather",
        "lat": 3.2227623158645096e-05,
        "lon": 171.9489087938406,
        "alt_km": 35787.74672625817,
        "timestamp": "2025-12-20T14:38:01.600863+00:00",
        "meta_object_name": "GOES 18",
        "meta_object_id": "2022-021A",
        "meta_epoch": "2025-12-20T05:40:07.018176",
        "meta_mean_motion": 1.00273009,
        "meta_eccentricity": 5.026e-05,
        "meta_inclination": 0.0014,
        "meta_ra_of_asc_node": 269.0768,
        "meta_arg_of_pericenter": 68.8759,
        "meta_mean_anomaly": 59.1597,
        "meta_ephemeris_type": 0,
        "meta_classification_type": "U",
        "meta_norad_cat_id": 51850,
        "meta_element_set_no": 999,
        "meta_rev_at_epoch": 479,
        "meta_bstar": 0,
        "meta_mean_motion_dot": 1.2e-06,
        "meta_mean_motion_ddot": 0,
        "tle_line1": "1 51850U 22021A   25354.23619234  .00000120  00000+0  00000+0 0  9996",
        "tle_line2": "2 51850   0.0014 269.0768 0000502  68.8759  59.1597  1.00273009  4792"
      },
      "geometry": {
        "type": "Point",
        "coordinates": [
          171.9489087938406,
          3.2227623158645096e-05
        ]
      }
    },
    {
      "type": "Feature",
      "properties": {
        "norad_id": 54234,
        "name": "NOAA 21 (JPSS-2)",
        "group": "weather",
        "lat": -35.67422384726952,
        "lon": 104.47428603036853,
        "alt_km": 834.5214117490214,
        "timestamp": "2025-12-20T14:38:01.600874+00:00",
        "meta_object_name": "NOAA 21 (JPSS-2)",
        "meta_object_id": "2022-150A",
        "meta_epoch": "2025-12-20T05:09:38.834784",
        "meta_mean_motion": 14.19526097,
        "meta_eccentricity": 0.00018971,
        "meta_inclination": 98.7472,
        "meta_ra_of_asc_node": 290.4303,
        "meta_arg_of_pericenter": 23.2316,
        "meta_mean_anomaly": 336.8945,
        "meta_ephemeris_type": 0,
        "meta_classification_type": "U",
        "meta_norad_cat_id": 54234,
        "meta_element_set_no": 999,
        "meta_rev_at_epoch": 16115,
        "meta_bstar": 4.3973739e-05,
        "meta_mean_motion_dot": 4.9e-07,
        "meta_mean_motion_ddot": 0,
        "tle_line1": "1 54234U 22150A   25354.21503281  .00000049  00000+0  43974-4 0  9992",
        "tle_line2": "2 54234  98.7472 290.4303 0001897  23.2316 336.8945 14.19526097161156"
      },
      "geometry": {
        "type": "Point",
        "coordinates": [
          104.47428603036853,
          -35.67422384726952
        ]
      }
    },
    {
      "type": "Feature",
      "properties": {
        "norad_id": 54743,
        "name": "METEOSAT-12 (MTG-I1)",
        "group": "weather",
        "lat": -0.6948007213223154,
        "lon": -51.35603248123442,
        "alt_km": 35781.99416471698,
        "timestamp": "2025-12-20T14:38:01.600888+00:00",
        "meta_object_name": "METEOSAT-12 (MTG-I1)",
        "meta_object_id": "2022-170C",
        "meta_epoch": "2025-12-20T03:48:38.814048",
        "meta_mean_motion": 1.00270538,
        "meta_eccentricity": 0.00014834,
        "meta_inclination": 0.6942,
        "meta_ra_of_asc_node": 24.8229,
        "meta_arg_of_pericenter": 239.6075,
        "meta_mean_anomaly": 241.4222,
        "meta_ephemeris_type": 0,
        "meta_classification_type": "U",
        "meta_norad_cat_id": 54743,
        "meta_element_set_no": 999,
        "meta_rev_at_epoch": 1118,
        "meta_bstar": 0,
        "meta_mean_motion_dot": 1.6e-07,
        "meta_mean_motion_ddot": 0,
        "tle_line1": "1 54743U 22170C   25354.15878257  .00000016  00000+0  00000+0 0  9992",
        "tle_line2": "2 54743   0.6942  24.8229 0001483 239.6075 241.4222  1.00270538 11185"
      },
      "geometry": {
        "type": "Point",
        "coordinates": [
          -51.35603248123442,
          -0.6948007213223154
        ]
      }
    }
  ]
}